ISS (ZARYA)             
1 25544U 98067A   26004.24240112  .00010563  00000+0  19894-3 0  9996
2 25544  51.6326  31.0546 0007566 338.8096  21.2578 15.49083682546348
CSS (TIANHE)            
1 48274U 21035A   26004.12649210  .00023377  00000+0  28186-3 0  9992
2 48274  41.4654 240.7044 0010598 216.1453 143.8670 15.60161015267524
ISS (NAUKA)             
1 49044U 21066A   26004.24240112  .00010563  00000+0  19894-3 0  9992
2 49044  51.6326  31.0546 0007566 338.8096  21.2578 15.49083682230440
FREGAT DEB              
1 49271U 11037PF  26003.59107743  .00032011  00000+0  68161-1 0  9991
2 49271  51.6534 134.8381 0874859 271.7974  78.3006 12.34976008204634
CSS (WENTIAN)           
1 53239U 22085A   26004.12649210  .00023377  00000+0  28186-3 0  9995
2 53239  41.4654 240.7044 0010598 216.1453 143.8670 15.60161015173842
CSS (MENGTIAN)          
1 54216U 22143A   26004.12649210  .00023377  00000+0  28186-3 0  9996
2 54216  41.4654 240.7044 0010598 216.1453 143.8670 15.60161015158649
SHENZHOU-20 (SZ-20)     
1 63632U 25082A   26004.12649210  .00023377  00000+0  28186-3 0  9993
2 63632  41.4654 240.7044 0010598 216.1453 143.8670 15.60161015255302
PROGRESS-MS 31          
1 64751U 25146A   26004.24240112  .00010563  00000+0  19894-3 0  9997
2 64751  51.6326  31.0546 0007566 338.8096  21.2578 15.49083682  6757
TIANZHOU-9              
1 64786U 25149A   26004.12649210  .00023377  00000+0  28186-3 0  9998
2 64786  41.4654 240.7044 0010598 216.1453 143.8670 15.60161015255303
CREW DRAGON 11          
1 65077U 25166A   26004.24240112  .00010563  00000+0  19894-3 0  9991
2 65077  51.6326  31.0546 0007566 338.8096  21.2578 15.49083682  2148
DRAGON CRS-33           
1 65304U 25186A   26004.24240112  .00010563  00000+0  19894-3 0  9996
2 65304  51.6326  31.0546 0007566 338.8096  21.2578 15.49083682   116
PROGRESS-MS 32          
1 65586U 25204A   26004.24240112  .00010563  00000+0  19894-3 0  9999
2 65586  51.6326  31.0546 0007566 338.8096  21.2578 15.49083682   275
