CCSDS_OMM_VERS = 2.0
CREATION_DATE  = 
ORIGINATOR     = 

OBJECT_NAME    = ISS (ZARYA)
OBJECT_ID      = 1998-067A
CENTER_NAME    = EARTH
REF_FRAME      = TEME
TIME_SYSTEM    = UTC
MEAN_ELEMENT_THEORY = SGP/SGP4

EPOCH          = 2026-01-04T05:49:03.456768
MEAN_MOTION    = 15.49083682
ECCENTRICITY   = .00075668
INCLINATION    = 51.6326
RA_OF_ASC_NODE = 31.0546
ARG_OF_PERICENTER = 338.8096
MEAN_ANOMALY   = 21.2578

EPHEMERIS_TYPE = 0
CLASSIFICATION_TYPE = U
NORAD_CAT_ID   = 25544
ELEMENT_SET_NO = 999
REV_AT_EPOCH   = 54634
BSTAR          = .19893818E-3
MEAN_MOTION_DOT = .10563E-3
MEAN_MOTION_DDOT = 0

CCSDS_OMM_VERS = 2.0
CREATION_DATE  = 
ORIGINATOR     = 

OBJECT_NAME    = CSS (TIANHE)
OBJECT_ID      = 2021-035A
CENTER_NAME    = EARTH
REF_FRAME      = TEME
TIME_SYSTEM    = UTC
MEAN_ELEMENT_THEORY = SGP/SGP4

EPOCH          = 2026-01-04T03:02:08.917440
MEAN_MOTION    = 15.60161015
ECCENTRICITY   = .0010598
INCLINATION    = 41.4654
RA_OF_ASC_NODE = 240.7044
ARG_OF_PERICENTER = 216.1453
MEAN_ANOMALY   = 143.8670

EPHEMERIS_TYPE = 0
CLASSIFICATION_TYPE = U
NORAD_CAT_ID   = 48274
ELEMENT_SET_NO = 999
REV_AT_EPOCH   = 26752
BSTAR          = .28185644E-3
MEAN_MOTION_DOT = .23377E-3
MEAN_MOTION_DDOT = 0

CCSDS_OMM_VERS = 2.0
CREATION_DATE  = 
ORIGINATOR     = 

OBJECT_NAME    = ISS (NAUKA)
OBJECT_ID      = 2021-066A
CENTER_NAME    = EARTH
REF_FRAME      = TEME
TIME_SYSTEM    = UTC
MEAN_ELEMENT_THEORY = SGP/SGP4

EPOCH          = 2026-01-04T05:49:03.456768
MEAN_MOTION    = 15.49083682
ECCENTRICITY   = .00075668
INCLINATION    = 51.6326
RA_OF_ASC_NODE = 31.0546
ARG_OF_PERICENTER = 338.8096
MEAN_ANOMALY   = 21.2578

EPHEMERIS_TYPE = 0
CLASSIFICATION_TYPE = U
NORAD_CAT_ID   = 49044
ELEMENT_SET_NO = 999
REV_AT_EPOCH   = 23044
BSTAR          = .19893818E-3
MEAN_MOTION_DOT = .10563E-3
MEAN_MOTION_DDOT = 0

CCSDS_OMM_VERS = 2.0
CREATION_DATE  = 
ORIGINATOR     = 

OBJECT_NAME    = FREGAT DEB
OBJECT_ID      = 2011-037PF
CENTER_NAME    = EARTH
REF_FRAME      = TEME
TIME_SYSTEM    = UTC
MEAN_ELEMENT_THEORY = SGP/SGP4

EPOCH          = 2026-01-03T14:11:09.089952
MEAN_MOTION    = 12.34976008
ECCENTRICITY   = .08748597
INCLINATION    = 51.6534
RA_OF_ASC_NODE = 134.8381
ARG_OF_PERICENTER = 271.7974
MEAN_ANOMALY   = 78.3006

EPHEMERIS_TYPE = 0
CLASSIFICATION_TYPE = U
NORAD_CAT_ID   = 49271
ELEMENT_SET_NO = 999
REV_AT_EPOCH   = 20463
BSTAR          = .68161387E-1
MEAN_MOTION_DOT = .32011E-3
MEAN_MOTION_DDOT = 0

CCSDS_OMM_VERS = 2.0
CREATION_DATE  = 
ORIGINATOR     = 

OBJECT_NAME    = CSS (WENTIAN)
OBJECT_ID      = 2022-085A
CENTER_NAME    = EARTH
REF_FRAME      = TEME
TIME_SYSTEM    = UTC
MEAN_ELEMENT_THEORY = SGP/SGP4

EPOCH          = 2026-01-04T03:02:08.917440
MEAN_MOTION    = 15.60161015
ECCENTRICITY   = .0010598
INCLINATION    = 41.4654
RA_OF_ASC_NODE = 240.7044
ARG_OF_PERICENTER = 216.1453
MEAN_ANOMALY   = 143.8670

EPHEMERIS_TYPE = 0
CLASSIFICATION_TYPE = U
NORAD_CAT_ID   = 53239
ELEMENT_SET_NO = 999
REV_AT_EPOCH   = 17384
BSTAR          = .28185644E-3
MEAN_MOTION_DOT = .23377E-3
MEAN_MOTION_DDOT = 0

CCSDS_OMM_VERS = 2.0
CREATION_DATE  = 
ORIGINATOR     = 

OBJECT_NAME    = CSS (MENGTIAN)
OBJECT_ID      = 2022-143A
CENTER_NAME    = EARTH
REF_FRAME      = TEME
TIME_SYSTEM    = UTC
MEAN_ELEMENT_THEORY = SGP/SGP4

EPOCH          = 2026-01-04T03:02:08.917440
MEAN_MOTION    = 15.60161015
ECCENTRICITY   = .0010598
INCLINATION    = 41.4654
RA_OF_ASC_NODE = 240.7044
ARG_OF_PERICENTER = 216.1453
MEAN_ANOMALY   = 143.8670

EPHEMERIS_TYPE = 0
CLASSIFICATION_TYPE = U
NORAD_CAT_ID   = 54216
ELEMENT_SET_NO = 999
REV_AT_EPOCH   = 15864
BSTAR          = .28185644E-3
MEAN_MOTION_DOT = .23377E-3
MEAN_MOTION_DDOT = 0

CCSDS_OMM_VERS = 2.0
CREATION_DATE  = 
ORIGINATOR     = 

OBJECT_NAME    = SHENZHOU-20 (SZ-20)
OBJECT_ID      = 2025-082A
CENTER_NAME    = EARTH
REF_FRAME      = TEME
TIME_SYSTEM    = UTC
MEAN_ELEMENT_THEORY = SGP/SGP4

EPOCH          = 2026-01-04T03:02:08.917440
MEAN_MOTION    = 15.60161015
ECCENTRICITY   = .0010598
INCLINATION    = 41.4654
RA_OF_ASC_NODE = 240.7044
ARG_OF_PERICENTER = 216.1453
MEAN_ANOMALY   = 143.8670

EPHEMERIS_TYPE = 0
CLASSIFICATION_TYPE = U
NORAD_CAT_ID   = 63632
ELEMENT_SET_NO = 999
REV_AT_EPOCH   = 25530
BSTAR          = .28185644E-3
MEAN_MOTION_DOT = .23377E-3
MEAN_MOTION_DDOT = 0

CCSDS_OMM_VERS = 2.0
CREATION_DATE  = 
ORIGINATOR     = 

OBJECT_NAME    = PROGRESS-MS 31
OBJECT_ID      = 2025-146A
CENTER_NAME    = EARTH
REF_FRAME      = TEME
TIME_SYSTEM    = UTC
MEAN_ELEMENT_THEORY = SGP/SGP4

EPOCH          = 2026-01-04T05:49:03.456768
MEAN_MOTION    = 15.49083682
ECCENTRICITY   = .00075668
INCLINATION    = 51.6326
RA_OF_ASC_NODE = 31.0546
ARG_OF_PERICENTER = 338.8096
MEAN_ANOMALY   = 21.2578

EPHEMERIS_TYPE = 0
CLASSIFICATION_TYPE = U
NORAD_CAT_ID   = 64751
ELEMENT_SET_NO = 999
REV_AT_EPOCH   = 675
BSTAR          = .19893818E-3
MEAN_MOTION_DOT = .10563E-3
MEAN_MOTION_DDOT = 0

CCSDS_OMM_VERS = 2.0
CREATION_DATE  = 
ORIGINATOR     = 

OBJECT_NAME    = TIANZHOU-9
OBJECT_ID      = 2025-149A
CENTER_NAME    = EARTH
REF_FRAME      = TEME
TIME_SYSTEM    = UTC
MEAN_ELEMENT_THEORY = SGP/SGP4

EPOCH          = 2026-01-04T03:02:08.917440
MEAN_MOTION    = 15.60161015
ECCENTRICITY   = .0010598
INCLINATION    = 41.4654
RA_OF_ASC_NODE = 240.7044
ARG_OF_PERICENTER = 216.1453
MEAN_ANOMALY   = 143.8670

EPHEMERIS_TYPE = 0
CLASSIFICATION_TYPE = U
NORAD_CAT_ID   = 64786
ELEMENT_SET_NO = 999
REV_AT_EPOCH   = 25530
BSTAR          = .28185644E-3
MEAN_MOTION_DOT = .23377E-3
MEAN_MOTION_DDOT = 0

CCSDS_OMM_VERS = 2.0
CREATION_DATE  = 
ORIGINATOR     = 

OBJECT_NAME    = CREW DRAGON 11
OBJECT_ID      = 2025-166A
CENTER_NAME    = EARTH
REF_FRAME      = TEME
TIME_SYSTEM    = UTC
MEAN_ELEMENT_THEORY = SGP/SGP4

EPOCH          = 2026-01-04T05:49:03.456768
MEAN_MOTION    = 15.49083682
ECCENTRICITY   = .00075668
INCLINATION    = 51.6326
RA_OF_ASC_NODE = 31.0546
ARG_OF_PERICENTER = 338.8096
MEAN_ANOMALY   = 21.2578

EPHEMERIS_TYPE = 0
CLASSIFICATION_TYPE = U
NORAD_CAT_ID   = 65077
ELEMENT_SET_NO = 999
REV_AT_EPOCH   = 214
BSTAR          = .19893818E-3
MEAN_MOTION_DOT = .10563E-3
MEAN_MOTION_DDOT = 0

CCSDS_OMM_VERS = 2.0
CREATION_DATE  = 
ORIGINATOR     = 

OBJECT_NAME    = DRAGON CRS-33
OBJECT_ID      = 2025-186A
CENTER_NAME    = EARTH
REF_FRAME      = TEME
TIME_SYSTEM    = UTC
MEAN_ELEMENT_THEORY = SGP/SGP4

EPOCH          = 2026-01-04T05:49:03.456768
MEAN_MOTION    = 15.49083682
ECCENTRICITY   = .00075668
INCLINATION    = 51.6326
RA_OF_ASC_NODE = 31.0546
ARG_OF_PERICENTER = 338.8096
MEAN_ANOMALY   = 21.2578

EPHEMERIS_TYPE = 0
CLASSIFICATION_TYPE = U
NORAD_CAT_ID   = 65304
ELEMENT_SET_NO = 999
REV_AT_EPOCH   = 11
BSTAR          = .19893818E-3
MEAN_MOTION_DOT = .10563E-3
MEAN_MOTION_DDOT = 0

CCSDS_OMM_VERS = 2.0
CREATION_DATE  = 
ORIGINATOR     = 

OBJECT_NAME    = PROGRESS-MS 32
OBJECT_ID      = 2025-204A
CENTER_NAME    = EARTH
REF_FRAME      = TEME
TIME_SYSTEM    = UTC
MEAN_ELEMENT_THEORY = SGP/SGP4

EPOCH          = 2026-01-04T05:49:03.456768
MEAN_MOTION    = 15.49083682
ECCENTRICITY   = .00075668
INCLINATION    = 51.6326
RA_OF_ASC_NODE = 31.0546
ARG_OF_PERICENTER = 338.8096
MEAN_ANOMALY   = 21.2578

EPHEMERIS_TYPE = 0
CLASSIFICATION_TYPE = U
NORAD_CAT_ID   = 65586
ELEMENT_SET_NO = 999
REV_AT_EPOCH   = 27
BSTAR          = .19893818E-3
MEAN_MOTION_DOT = .10563E-3
MEAN_MOTION_DDOT = 0

